0 THORAD AGENA D DEB *
1 05387U 70025KS  13282.80260503  .00001844  00000-0  13439-1 0  9737
2 05387 101.0125 215.9958 0583409 274.1838 141.1134 12.03860115762665
0 THORAD AGENA D DEB *
1 05387U 70025KS  13286.31002865  .00001054  00000-0  78060-2 0  9759
2 05387 101.0141 218.9843 0582648 267.7627 221.9897 12.03865570763087
0 THORAD AGENA D DEB *
1 05387U 70025KS  13287.78875410  .00001142  00000-0  84418-2 0  9768
2 05387 101.0145 220.2423 0582354 265.0599 150.6680 12.03865804763262
0 THORAD AGENA D DEB *
1 05387U 70025KS  13290.30637236  .00000765  00000-0  57493-2 0  9776
2 05387 101.0150 222.3847 0581920 260.4597 261.8370 12.03867760763563
0 THORAD AGENA D DEB *
1 05387U 70025KS  13290.78050933  .00000541  00000-0  41475-2 0  9787
2 05387 101.0149 222.7896 0581379 259.5852 156.7022 12.03864975763628
0 THORAD AGENA D DEB *
1 05387U 70025KS  13292.30081662  .00000504  00000-0  38891-2 0  9798
2 05387 101.0147 224.0839 0581094 256.8064 265.5898 12.03864040763800
0 THORAD AGENA D DEB *
1 05387U 70025KS  13295.36686311  .00000247  00000-0  20444-2 0  9800
2 05387 101.0145 226.6935 0580446 251.1982 233.5213 12.03857025764172
